*******************************************************************************
Ephemeris / WWW_USER Mon Jul 15 19:12:57 2024 Pasadena, USA      / Horizons    
*******************************************************************************
Target body name: (2018 VS1)                      {source: JPL#4}
Center body name: Earth (399)                     {source: DE441}
Center-site name: Gemini South Obs., Cerro Pachon
*******************************************************************************
Start time      : A.D. 2018-Dec-08 23:45:00.0000 UT      
Stop  time      : A.D. 2018-Dec-09 09:24:00.0000 UT      
Step-size       : 1 minutes
*******************************************************************************
Target pole/equ : undefined
Target radii    : undefined                                                    
Center geodetic : 289.2634, -30.2406227, 2.71233  {E-lon(deg),Lat(deg),Alt(km)}
Center cylindric: 289.2634,5517.21435,-3194.81213 {E-lon(deg),Dxy(km),Dz(km)}
Center pole/equ : ITRF93                          {East-longitude positive}
Center radii    : 6378.137, 6378.137, 6356.752 km {Equator_a, b, pole_c}       
Target primary  : Sun
Vis. interferer : MOON (R_eq= 1737.400) km        {source: DE441}
Rel. light bend : Sun                             {source: DE441}
Rel. lght bnd GM: 1.3271E+11 km^3/s^2                                          
Small-body perts: Yes                             {source: SB441-N16}
Atmos refraction: NO (AIRLESS)
RA format       : HMS
Time format     : CAL 
Calendar mode   : Mixed Julian/Gregorian
RTS-only print  : NO       
EOP file        : eop.240715.p241008                                           
EOP coverage    : DATA-BASED 1962-JAN-20 TO 2024-JUL-15. PREDICTS-> 2024-OCT-07
Units conversion: 1 au= 149597870.700 km, c= 299792.458 km/s, 1 day= 86400.0 s 
Table cut-offs 1: Elevation (-90.0deg=NO ),Airmass (>38.000=NO), Daylight (YES)
Table cut-offs 2: Solar elongation (  0.0,180.0=NO ),Local Hour Angle( 0.0=NO )
Table cut-offs 3: RA/DEC angular rate (     0.0=NO )                           
*******************************************************************************
Initial IAU76/J2000 heliocentric ecliptic osculating elements (au, days, deg.):
  EPOCH=  2458427.5 ! 2018-Nov-05.00 (TDB)         Residual RMS= .21634        
   EC= .3907275528854954   QR= .7806320880190512   TP= 2458486.1030618688      
   OM= 55.95483604725189   W=  67.17004921097404   IN= 3.601110299269385       
  Equivalent ICRF heliocentric cartesian coordinates (au, au/d):
   X= 7.595935200506908E-01  Y= 6.354459268576240E-01  Z= 2.586666727482118E-01
  VX=-1.643099138746886E-02 VY= 7.530892270769961E-03 VZ= 4.533522122669557E-03
Asteroid physical parameters (km, seconds, rotational period in hours):        
   GM= n.a.                RAD= n.a.               ROTPER= n.a.                
   H= 26.6                 G= .150                 B-V= n.a.                   
                           ALBEDO= n.a.            STYP= n.a.                  
*******************************************************************************
 Date__(UT)__HR:MN     R.A._________(ICRF)_________DEC
******************************************************
$$SOE
 2018-Dec-09 01:48     14 55 44.426507 -08 42 11.34197
 2018-Dec-09 01:49     14 55 44.475110 -08 42 11.41470
 2018-Dec-09 01:50     14 55 44.523723 -08 42 11.48757
 2018-Dec-09 01:51     14 55 44.572345 -08 42 11.56058
 2018-Dec-09 01:52     14 55 44.620976 -08 42 11.63374
 2018-Dec-09 01:53     14 55 44.669617 -08 42 11.70703
 2018-Dec-09 01:54     14 55 44.718266 -08 42 11.78046
 2018-Dec-09 01:55     14 55 44.766924 -08 42 11.85403
 2018-Dec-09 01:56     14 55 44.815590 -08 42 11.92773
 2018-Dec-09 01:57     14 55 44.864264 -08 42 12.00158
 2018-Dec-09 01:58     14 55 44.912946 -08 42 12.07557
 2018-Dec-09 01:59     14 55 44.961635 -08 42 12.14970
 2018-Dec-09 02:00     14 55 45.010332 -08 42 12.22397
 2018-Dec-09 02:01     14 55 45.059036 -08 42 12.29838
 2018-Dec-09 02:02     14 55 45.107747 -08 42 12.37293
 2018-Dec-09 02:03     14 55 45.156465 -08 42 12.44762
 2018-Dec-09 02:04     14 55 45.205190 -08 42 12.52245
 2018-Dec-09 02:05     14 55 45.253920 -08 42 12.59742
 2018-Dec-09 02:06     14 55 45.302657 -08 42 12.67253
 2018-Dec-09 02:07     14 55 45.351399 -08 42 12.74779
 2018-Dec-09 02:08     14 55 45.400147 -08 42 12.82318
 2018-Dec-09 02:09     14 55 45.448901 -08 42 12.89871
 2018-Dec-09 02:10     14 55 45.497659 -08 42 12.97438
 2018-Dec-09 02:11     14 55 45.546423 -08 42 13.05020
 2018-Dec-09 02:12     14 55 45.595191 -08 42 13.12615
 2018-Dec-09 02:13     14 55 45.643963 -08 42 13.20224
 2018-Dec-09 02:14     14 55 45.692740 -08 42 13.27848
 2018-Dec-09 02:15     14 55 45.741521 -08 42 13.35485
 2018-Dec-09 02:16     14 55 45.790305 -08 42 13.43137
 2018-Dec-09 02:17     14 55 45.839093 -08 42 13.50803
 2018-Dec-09 02:18     14 55 45.887885 -08 42 13.58482
 2018-Dec-09 02:19     14 55 45.936679 -08 42 13.66176
 2018-Dec-09 02:20     14 55 45.985477 -08 42 13.73884
 2018-Dec-09 02:21     14 55 46.034277 -08 42 13.81606
 2018-Dec-09 02:22     14 55 46.083079 -08 42 13.89342
 2018-Dec-09 02:23     14 55 46.131884 -08 42 13.97092
 2018-Dec-09 02:24     14 55 46.180690 -08 42 14.04856
 2018-Dec-09 02:25     14 55 46.229498 -08 42 14.12634
 2018-Dec-09 02:26     14 55 46.278308 -08 42 14.20427
 2018-Dec-09 02:27     14 55 46.327119 -08 42 14.28233
 2018-Dec-09 02:28     14 55 46.375931 -08 42 14.36053
 2018-Dec-09 02:29     14 55 46.424744 -08 42 14.43888
 2018-Dec-09 02:30     14 55 46.473557 -08 42 14.51736
 2018-Dec-09 02:31     14 55 46.522371 -08 42 14.59599
 2018-Dec-09 02:32     14 55 46.571185 -08 42 14.67476
 2018-Dec-09 02:33     14 55 46.619998 -08 42 14.75366
 2018-Dec-09 02:34     14 55 46.668812 -08 42 14.83271
 2018-Dec-09 02:35     14 55 46.717625 -08 42 14.91190
 2018-Dec-09 02:36     14 55 46.766437 -08 42 14.99123
 2018-Dec-09 02:37     14 55 46.815248 -08 42 15.07070
 2018-Dec-09 02:38     14 55 46.864058 -08 42 15.15031
 2018-Dec-09 02:39     14 55 46.912866 -08 42 15.23006
 2018-Dec-09 02:40     14 55 46.961673 -08 42 15.30995
 2018-Dec-09 02:41     14 55 47.010477 -08 42 15.38998
 2018-Dec-09 02:42     14 55 47.059280 -08 42 15.47015
 2018-Dec-09 02:43     14 55 47.108080 -08 42 15.55046
 2018-Dec-09 02:44     14 55 47.156878 -08 42 15.63091
 2018-Dec-09 02:45     14 55 47.205672 -08 42 15.71150
 2018-Dec-09 02:46     14 55 47.254464 -08 42 15.79223
 2018-Dec-09 02:47     14 55 47.303253 -08 42 15.87311
 2018-Dec-09 02:48     14 55 47.352037 -08 42 15.95412
 2018-Dec-09 02:49     14 55 47.400819 -08 42 16.03527
 2018-Dec-09 02:50     14 55 47.449596 -08 42 16.11656
 2018-Dec-09 02:51     14 55 47.498369 -08 42 16.19799
 2018-Dec-09 02:52     14 55 47.547137 -08 42 16.27956
 2018-Dec-09 02:53     14 55 47.595901 -08 42 16.36127
 2018-Dec-09 02:54     14 55 47.644660 -08 42 16.44312
 2018-Dec-09 02:55     14 55 47.693414 -08 42 16.52511
 2018-Dec-09 02:56     14 55 47.742163 -08 42 16.60724
 2018-Dec-09 02:57     14 55 47.790906 -08 42 16.68951
 2018-Dec-09 02:58     14 55 47.839643 -08 42 16.77192
 2018-Dec-09 02:59     14 55 47.888375 -08 42 16.85447
 2018-Dec-09 03:00     14 55 47.937100 -08 42 16.93715
 2018-Dec-09 03:01     14 55 47.985819 -08 42 17.01998
 2018-Dec-09 03:02     14 55 48.034531 -08 42 17.10294
 2018-Dec-09 03:03     14 55 48.083236 -08 42 17.18605
 2018-Dec-09 03:04     14 55 48.131934 -08 42 17.26929
 2018-Dec-09 03:05     14 55 48.180624 -08 42 17.35267
 2018-Dec-09 03:06     14 55 48.229307 -08 42 17.43619
 2018-Dec-09 03:07     14 55 48.277983 -08 42 17.51985
 2018-Dec-09 03:08     14 55 48.326650 -08 42 17.60364
 2018-Dec-09 03:09     14 55 48.375309 -08 42 17.68758
 2018-Dec-09 03:10     14 55 48.423959 -08 42 17.77165
 2018-Dec-09 03:11     14 55 48.472601 -08 42 17.85586
 2018-Dec-09 03:12     14 55 48.521234 -08 42 17.94021
 2018-Dec-09 03:13     14 55 48.569858 -08 42 18.02470
 2018-Dec-09 03:14     14 55 48.618473 -08 42 18.10932
 2018-Dec-09 03:15     14 55 48.667077 -08 42 18.19409
 2018-Dec-09 03:16     14 55 48.715673 -08 42 18.27899
 2018-Dec-09 03:17     14 55 48.764258 -08 42 18.36402
 2018-Dec-09 03:18     14 55 48.812832 -08 42 18.44920
 2018-Dec-09 03:19     14 55 48.861397 -08 42 18.53451
 2018-Dec-09 03:20     14 55 48.909950 -08 42 18.61996
 2018-Dec-09 03:21     14 55 48.958493 -08 42 18.70555
 2018-Dec-09 03:22     14 55 49.007025 -08 42 18.79127
 2018-Dec-09 03:23     14 55 49.055545 -08 42 18.87713
 2018-Dec-09 03:24     14 55 49.104054 -08 42 18.96312
 2018-Dec-09 03:25     14 55 49.152551 -08 42 19.04926
 2018-Dec-09 03:26     14 55 49.201036 -08 42 19.13553
 2018-Dec-09 03:27     14 55 49.249508 -08 42 19.22193
 2018-Dec-09 03:28     14 55 49.297969 -08 42 19.30847
 2018-Dec-09 03:29     14 55 49.346416 -08 42 19.39515
 2018-Dec-09 03:30     14 55 49.394851 -08 42 19.48196
 2018-Dec-09 03:31     14 55 49.443273 -08 42 19.56891
 2018-Dec-09 03:32     14 55 49.491681 -08 42 19.65599
 2018-Dec-09 03:33     14 55 49.540076 -08 42 19.74321
 2018-Dec-09 03:34     14 55 49.588457 -08 42 19.83056
 2018-Dec-09 03:35     14 55 49.636824 -08 42 19.91805
 2018-Dec-09 03:36     14 55 49.685177 -08 42 20.00568
 2018-Dec-09 03:37     14 55 49.733515 -08 42 20.09344
 2018-Dec-09 03:38     14 55 49.781839 -08 42 20.18133
 2018-Dec-09 03:39     14 55 49.830148 -08 42 20.26935
 2018-Dec-09 03:40     14 55 49.878442 -08 42 20.35752
 2018-Dec-09 03:41     14 55 49.926720 -08 42 20.44581
 2018-Dec-09 03:42     14 55 49.974984 -08 42 20.53424
 2018-Dec-09 03:43     14 55 50.023231 -08 42 20.62280
 2018-Dec-09 03:44     14 55 50.071463 -08 42 20.71150
 2018-Dec-09 03:45     14 55 50.119678 -08 42 20.80033
 2018-Dec-09 03:46     14 55 50.167877 -08 42 20.88929
 2018-Dec-09 03:47     14 55 50.216060 -08 42 20.97838
 2018-Dec-09 03:48     14 55 50.264226 -08 42 21.06761
 2018-Dec-09 03:49     14 55 50.312375 -08 42 21.15697
 2018-Dec-09 03:50     14 55 50.360506 -08 42 21.24646
